STARLINK-36422          
1 67344U 26003L   26024.91668981 -.00024186  00000+0 -15459-3 0  9996
2 67344  42.9992 118.5302 0001549 274.4366 336.5816 15.75068376  3623
STARLINK-35676          
1 67345U 26003M   26024.91668981 -.00044814  00000+0 -28981-3 0  9991
2 67345  42.9992 118.5267 0001641 266.8595 346.0800 15.75067116  3626
STARLINK-36472          
1 67346U 26003N   26024.91668981 -.00069326  00000+0 -45096-3 0  9993
2 67346  42.9991 118.5213 0001825 271.9562 342.8944 15.75085544  3620
STARLINK-36420          
1 67347U 26003P   26024.91668981 -.00068794  00000+0 -44739-3 0  9995
2 67347  42.9990 118.5119 0001385 264.7259 353.9574 15.75090181  3635
STARLINK-36467          
1 67348U 26003Q   26024.91668981 -.00061694  00000+0 -40071-3 0  9993
2 67348  42.9991 118.5174 0001517 282.0172 334.7480 15.75081182  3636
STARLINK-36457          
1 67349U 26003R   26024.91668981 -.00043706  00000+0 -28236-3 0  9997
2 67349  42.9992 118.5065 0001545 266.9321 353.6695 15.75081238  3635
STARLINK-36475          
1 67350U 26003S   26024.91668981 -.00061296  00000+0 -39804-3 0  9996
2 67350  42.9990 118.5019 0001847 253.6045   8.9100 15.75082222  3629
STARLINK-36478          
1 67351U 26003T   26024.91668981  .00001717  00000+0  14273-4 0  9991
2 67351  42.9990 118.4972 0001915 265.2011 359.2347 15.75066935  3623
STARLINK-36479          
1 67352U 26003U   26024.91668981 -.00074521  00000+0 -48512-3 0  9999
2 67352  42.9991 118.4925 0001911 257.4905   8.8544 15.75093410  3639
STARLINK-36474          
1 67353U 26003V   26024.91668981 -.00106766  00000+0 -69893-3 0  9992
2 67353  42.9990 118.4879 0001495 261.7929   6.4815 15.75098134  3631
STARLINK-36448          
1 67354U 26003W   26024.91668981 -.00084454  00000+0 -55058-3 0  9990
2 67354  42.9990 118.4730 0001986 244.7597  29.2509 15.75103692  3634
STARLINK-36477          
1 67355U 26003X   26024.91668981  .00008070  00000+0  55555-4 0  9992
2 67355  42.9991 118.4831 0001943 274.0720 356.1175 15.75054931  3626
