CCSDS_OMM_VERS = 2.0
CREATION_DATE  = 
ORIGINATOR     = 

OBJECT_NAME    = STARLINK-36422
OBJECT_ID      = 2026-003L
CENTER_NAME    = EARTH
REF_FRAME      = TEME
TIME_SYSTEM    = UTC
MEAN_ELEMENT_THEORY = SGP/SGP4

EPOCH          = 2026-01-24T22:00:01.999584
MEAN_MOTION    = 15.75068376
ECCENTRICITY   = .0001549
INCLINATION    = 42.9992
RA_OF_ASC_NODE = 118.5302
ARG_OF_PERICENTER = 274.4366
MEAN_ANOMALY   = 336.5816

EPHEMERIS_TYPE = 0
CLASSIFICATION_TYPE = U
NORAD_CAT_ID   = 67344
ELEMENT_SET_NO = 999
REV_AT_EPOCH   = 362
BSTAR          = -.1545879E-3
MEAN_MOTION_DOT = -.24186E-3
MEAN_MOTION_DDOT = 0

CCSDS_OMM_VERS = 2.0
CREATION_DATE  = 
ORIGINATOR     = 

OBJECT_NAME    = STARLINK-35676
OBJECT_ID      = 2026-003M
CENTER_NAME    = EARTH
REF_FRAME      = TEME
TIME_SYSTEM    = UTC
MEAN_ELEMENT_THEORY = SGP/SGP4

EPOCH          = 2026-01-24T22:00:01.999584
MEAN_MOTION    = 15.75067116
ECCENTRICITY   = .0001641
INCLINATION    = 42.9992
RA_OF_ASC_NODE = 118.5267
ARG_OF_PERICENTER = 266.8595
MEAN_ANOMALY   = 346.0800

EPHEMERIS_TYPE = 0
CLASSIFICATION_TYPE = U
NORAD_CAT_ID   = 67345
ELEMENT_SET_NO = 999
REV_AT_EPOCH   = 362
BSTAR          = -.28981027E-3
MEAN_MOTION_DOT = -.44814E-3
MEAN_MOTION_DDOT = 0

CCSDS_OMM_VERS = 2.0
CREATION_DATE  = 
ORIGINATOR     = 

OBJECT_NAME    = STARLINK-36472
OBJECT_ID      = 2026-003N
CENTER_NAME    = EARTH
REF_FRAME      = TEME
TIME_SYSTEM    = UTC
MEAN_ELEMENT_THEORY = SGP/SGP4

EPOCH          = 2026-01-24T22:00:01.999584
MEAN_MOTION    = 15.75085544
ECCENTRICITY   = .00018255
INCLINATION    = 42.9991
RA_OF_ASC_NODE = 118.5213
ARG_OF_PERICENTER = 271.9562
MEAN_ANOMALY   = 342.8944

EPHEMERIS_TYPE = 0
CLASSIFICATION_TYPE = U
NORAD_CAT_ID   = 67346
ELEMENT_SET_NO = 999
REV_AT_EPOCH   = 362
BSTAR          = -.45095971E-3
MEAN_MOTION_DOT = -.69326E-3
MEAN_MOTION_DDOT = 0

CCSDS_OMM_VERS = 2.0
CREATION_DATE  = 
ORIGINATOR     = 

OBJECT_NAME    = STARLINK-36420
OBJECT_ID      = 2026-003P
CENTER_NAME    = EARTH
REF_FRAME      = TEME
TIME_SYSTEM    = UTC
MEAN_ELEMENT_THEORY = SGP/SGP4

EPOCH          = 2026-01-24T22:00:01.999584
MEAN_MOTION    = 15.75090181
ECCENTRICITY   = .00013858
INCLINATION    = 42.9990
RA_OF_ASC_NODE = 118.5119
ARG_OF_PERICENTER = 264.7259
MEAN_ANOMALY   = 353.9574

EPHEMERIS_TYPE = 0
CLASSIFICATION_TYPE = U
NORAD_CAT_ID   = 67347
ELEMENT_SET_NO = 999
REV_AT_EPOCH   = 363
BSTAR          = -.4473911E-3
MEAN_MOTION_DOT = -.68794E-3
MEAN_MOTION_DDOT = 0

CCSDS_OMM_VERS = 2.0
CREATION_DATE  = 
ORIGINATOR     = 

OBJECT_NAME    = STARLINK-36467
OBJECT_ID      = 2026-003Q
CENTER_NAME    = EARTH
REF_FRAME      = TEME
TIME_SYSTEM    = UTC
MEAN_ELEMENT_THEORY = SGP/SGP4

EPOCH          = 2026-01-24T22:00:01.999584
MEAN_MOTION    = 15.75081182
ECCENTRICITY   = .00015174
INCLINATION    = 42.9991
RA_OF_ASC_NODE = 118.5174
ARG_OF_PERICENTER = 282.0172
MEAN_ANOMALY   = 334.7480

EPHEMERIS_TYPE = 0
CLASSIFICATION_TYPE = U
NORAD_CAT_ID   = 67348
ELEMENT_SET_NO = 999
REV_AT_EPOCH   = 363
BSTAR          = -.40070705E-3
MEAN_MOTION_DOT = -.61694E-3
MEAN_MOTION_DDOT = 0

CCSDS_OMM_VERS = 2.0
CREATION_DATE  = 
ORIGINATOR     = 

OBJECT_NAME    = STARLINK-36457
OBJECT_ID      = 2026-003R
CENTER_NAME    = EARTH
REF_FRAME      = TEME
TIME_SYSTEM    = UTC
MEAN_ELEMENT_THEORY = SGP/SGP4

EPOCH          = 2026-01-24T22:00:01.999584
MEAN_MOTION    = 15.75081238
ECCENTRICITY   = .00015458
INCLINATION    = 42.9992
RA_OF_ASC_NODE = 118.5065
ARG_OF_PERICENTER = 266.9321
MEAN_ANOMALY   = 353.6695

EPHEMERIS_TYPE = 0
CLASSIFICATION_TYPE = U
NORAD_CAT_ID   = 67349
ELEMENT_SET_NO = 999
REV_AT_EPOCH   = 363
BSTAR          = -.28235606E-3
MEAN_MOTION_DOT = -.43706E-3
MEAN_MOTION_DDOT = 0

CCSDS_OMM_VERS = 2.0
CREATION_DATE  = 
ORIGINATOR     = 

OBJECT_NAME    = STARLINK-36475
OBJECT_ID      = 2026-003S
CENTER_NAME    = EARTH
REF_FRAME      = TEME
TIME_SYSTEM    = UTC
MEAN_ELEMENT_THEORY = SGP/SGP4

EPOCH          = 2026-01-24T22:00:01.999584
MEAN_MOTION    = 15.75082222
ECCENTRICITY   = .00018479
INCLINATION    = 42.9990
RA_OF_ASC_NODE = 118.5019
ARG_OF_PERICENTER = 253.6045
MEAN_ANOMALY   = 8.9100

EPHEMERIS_TYPE = 0
CLASSIFICATION_TYPE = U
NORAD_CAT_ID   = 67350
ELEMENT_SET_NO = 999
REV_AT_EPOCH   = 362
BSTAR          = -.39804384E-3
MEAN_MOTION_DOT = -.61296E-3
MEAN_MOTION_DDOT = 0

CCSDS_OMM_VERS = 2.0
CREATION_DATE  = 
ORIGINATOR     = 

OBJECT_NAME    = STARLINK-36478
OBJECT_ID      = 2026-003T
CENTER_NAME    = EARTH
REF_FRAME      = TEME
TIME_SYSTEM    = UTC
MEAN_ELEMENT_THEORY = SGP/SGP4

EPOCH          = 2026-01-24T22:00:01.999584
MEAN_MOTION    = 15.75066935
ECCENTRICITY   = .00019157
INCLINATION    = 42.9990
RA_OF_ASC_NODE = 118.4972
ARG_OF_PERICENTER = 265.2011
MEAN_ANOMALY   = 359.2347

EPHEMERIS_TYPE = 0
CLASSIFICATION_TYPE = U
NORAD_CAT_ID   = 67351
ELEMENT_SET_NO = 999
REV_AT_EPOCH   = 362
BSTAR          = .14272542E-4
MEAN_MOTION_DOT = .1717E-4
MEAN_MOTION_DDOT = 0

CCSDS_OMM_VERS = 2.0
CREATION_DATE  = 
ORIGINATOR     = 

OBJECT_NAME    = STARLINK-36479
OBJECT_ID      = 2026-003U
CENTER_NAME    = EARTH
REF_FRAME      = TEME
TIME_SYSTEM    = UTC
MEAN_ELEMENT_THEORY = SGP/SGP4

EPOCH          = 2026-01-24T22:00:01.999584
MEAN_MOTION    = 15.75093410
ECCENTRICITY   = .00019119
INCLINATION    = 42.9991
RA_OF_ASC_NODE = 118.4925
ARG_OF_PERICENTER = 257.4905
MEAN_ANOMALY   = 8.8544

EPHEMERIS_TYPE = 0
CLASSIFICATION_TYPE = U
NORAD_CAT_ID   = 67352
ELEMENT_SET_NO = 999
REV_AT_EPOCH   = 363
BSTAR          = -.48511517E-3
MEAN_MOTION_DOT = -.74521E-3
MEAN_MOTION_DDOT = 0

CCSDS_OMM_VERS = 2.0
CREATION_DATE  = 
ORIGINATOR     = 

OBJECT_NAME    = STARLINK-36474
OBJECT_ID      = 2026-003V
CENTER_NAME    = EARTH
REF_FRAME      = TEME
TIME_SYSTEM    = UTC
MEAN_ELEMENT_THEORY = SGP/SGP4

EPOCH          = 2026-01-24T22:00:01.999584
MEAN_MOTION    = 15.75098134
ECCENTRICITY   = .00014955
INCLINATION    = 42.9990
RA_OF_ASC_NODE = 118.4879
ARG_OF_PERICENTER = 261.7929
MEAN_ANOMALY   = 6.4815

EPHEMERIS_TYPE = 0
CLASSIFICATION_TYPE = U
NORAD_CAT_ID   = 67353
ELEMENT_SET_NO = 999
REV_AT_EPOCH   = 363
BSTAR          = -.69892798E-3
MEAN_MOTION_DOT = -.106766E-2
MEAN_MOTION_DDOT = 0

CCSDS_OMM_VERS = 2.0
CREATION_DATE  = 
ORIGINATOR     = 

OBJECT_NAME    = STARLINK-36448
OBJECT_ID      = 2026-003W
CENTER_NAME    = EARTH
REF_FRAME      = TEME
TIME_SYSTEM    = UTC
MEAN_ELEMENT_THEORY = SGP/SGP4

EPOCH          = 2026-01-24T22:00:01.999584
MEAN_MOTION    = 15.75103692
ECCENTRICITY   = .00019867
INCLINATION    = 42.9990
RA_OF_ASC_NODE = 118.4730
ARG_OF_PERICENTER = 244.7597
MEAN_ANOMALY   = 29.2509

EPHEMERIS_TYPE = 0
CLASSIFICATION_TYPE = U
NORAD_CAT_ID   = 67354
ELEMENT_SET_NO = 999
REV_AT_EPOCH   = 363
BSTAR          = -.55058211E-3
MEAN_MOTION_DOT = -.84454E-3
MEAN_MOTION_DDOT = 0

CCSDS_OMM_VERS = 2.0
CREATION_DATE  = 
ORIGINATOR     = 

OBJECT_NAME    = STARLINK-36477
OBJECT_ID      = 2026-003X
CENTER_NAME    = EARTH
REF_FRAME      = TEME
TIME_SYSTEM    = UTC
MEAN_ELEMENT_THEORY = SGP/SGP4

EPOCH          = 2026-01-24T22:00:01.999584
MEAN_MOTION    = 15.75054931
ECCENTRICITY   = .00019437
INCLINATION    = 42.9991
RA_OF_ASC_NODE = 118.4831
ARG_OF_PERICENTER = 274.0720
MEAN_ANOMALY   = 356.1175

EPHEMERIS_TYPE = 0
CLASSIFICATION_TYPE = U
NORAD_CAT_ID   = 67355
ELEMENT_SET_NO = 999
REV_AT_EPOCH   = 362
BSTAR          = .55555103E-4
MEAN_MOTION_DOT = .807E-4
MEAN_MOTION_DDOT = 0

